{"fetched_at":"2026-03-29T16:36:15Z","count":15609,"tles":[{"name":"STARLINK-32592","line1":"1 62035U 24216D   26087.86705913  .00027833  00000+0  10159-2 0  9993","line2":"2 62035  43.0026 155.3616 0003485 277.2449  82.8006 15.27616363 76732","category":"Starlink"}]}